SAC-D
1 37673U 11024A   13338.44998866 +.00000000 +00000+0 +13394-4 6  9366
2 37673  98.0115 343.4535 0001782  85.6279 145.7272 14.72285099133118
